[{"OBJECT_NAME":"HAWK-14B","OBJECT_ID":"2026-067W","EPOCH":"2026-04-29T04:08:32.234784","MEAN_MOTION":15.17832123,"ECCENTRICITY":0.0002186,"INCLINATION":97.4514,"RA_OF_ASC_NODE":78.3535,"ARG_OF_PERICENTER":168.4006,"MEAN_ANOMALY":191.7278,"EPHEMERIS_TYPE":0,"CLASSIFICATION_TYPE":"U","NORAD_CAT_ID":68436,"ELEMENT_SET_NO":999,"REV_AT_EPOCH":450,"BSTAR":0.00014060348,"MEAN_MOTION_DOT":2.778e-5,"MEAN_MOTION_DDOT":0},{"OBJECT_NAME":"TRANSPORTER-16 OBJECT X","OBJECT_ID":"2026-067X","EPOCH":"2026-04-29T05:33:25.359264","MEAN_MOTION":15.18302262,"ECCENTRICITY":0.00024022,"INCLINATION":97.4474,"RA_OF_ASC_NODE":78.4102,"ARG_OF_PERICENTER":157.5043,"MEAN_ANOMALY":202.6297,"EPHEMERIS_TYPE":0,"CLASSIFICATION_TYPE":"U","NORAD_CAT_ID":68437,"ELEMENT_SET_NO":999,"REV_AT_EPOCH":451,"BSTAR":0.00069955891,"MEAN_MOTION_DOT":0.00014298,"MEAN_MOTION_DDOT":0},{"OBJECT_NAME":"TRANSPORTER-16 OBJECT Y","OBJECT_ID":"2026-067Y","EPOCH":"2026-04-29T05:32:39.476544","MEAN_MOTION":15.18429425,"ECCENTRICITY":0.00028385,"INCLINATION":97.4492,"RA_OF_ASC_NODE":78.4191,"ARG_OF_PERICENTER":168.9383,"MEAN_ANOMALY":191.1914,"EPHEMERIS_TYPE":0,"CLASSIFICATION_TYPE":"U","NORAD_CAT_ID":68438,"ELEMENT_SET_NO":999,"REV_AT_EPOCH":451,"BSTAR":0.00079977326,"MEAN_MOTION_DOT":0.00016421,"MEAN_MOTION_DDOT":0},{"OBJECT_NAME":"TRANSPORTER-16 OBJECT Z","OBJECT_ID":"2026-067Z","EPOCH":"2026-04-29T05:38:11.785632","MEAN_MOTION":15.18167471,"ECCENTRICITY":0.0001787,"INCLINATION":97.4484,"RA_OF_ASC_NODE":78.4122,"ARG_OF_PERICENTER":170.6511,"MEAN_ANOMALY":189.4756,"EPHEMERIS_TYPE":0,"CLASSIFICATION_TYPE":"U","NORAD_CAT_ID":68439,"ELEMENT_SET_NO":999,"REV_AT_EPOCH":451,"BSTAR":0.00069517952,"MEAN_MOTION_DOT":0.00014152,"MEAN_MOTION_DDOT":0},{"OBJECT_NAME":"TRANSPORTER-16 OBJECT AA","OBJECT_ID":"2026-067AA","EPOCH":"2026-04-29T05:35:30.327360","MEAN_MOTION":15.18392833,"ECCENTRICITY":0.00020816,"INCLINATION":97.4484,"RA_OF_ASC_NODE":78.4137,"ARG_OF_PERICENTER":169.9946,"MEAN_ANOMALY":190.133,"EPHEMERIS_TYPE":0,"CLASSIFICATION_TYPE":"U","NORAD_CAT_ID":68440,"ELEMENT_SET_NO":999,"REV_AT_EPOCH":451,"BSTAR":0.00092373094,"MEAN_MOTION_DOT":0.00018962,"MEAN_MOTION_DDOT":0},{"OBJECT_NAME":"HAWK-14C","OBJECT_ID":"2026-067AB","EPOCH":"2026-04-28T23:24:03.551904","MEAN_MOTION":15.17831666,"ECCENTRICITY":0.00011449,"INCLINATION":97.4453,"RA_OF_ASC_NODE":78.1152,"ARG_OF_PERICENTER":206.5054,"MEAN_ANOMALY":153.6122,"EPHEMERIS_TYPE":0,"CLASSIFICATION_TYPE":"U","NORAD_CAT_ID":68441,"ELEMENT_SET_NO":999,"REV_AT_EPOCH":447,"BSTAR":0.00021373216,"MEAN_MOTION_DOT":4.258e-5,"MEAN_MOTION_DDOT":0},{"OBJECT_NAME":"TRANSPORTER-16 OBJECT AC","OBJECT_ID":"2026-067AC","EPOCH":"2026-04-29T04:22:03.147168","MEAN_MOTION":15.1724211,"ECCENTRICITY":0.00029344,"INCLINATION":97.4506,"RA_OF_ASC_NODE":78.3383,"ARG_OF_PERICENTER":219.3502,"MEAN_ANOMALY":140.7519,"EPHEMERIS_TYPE":0,"CLASSIFICATION_TYPE":"U","NORAD_CAT_ID":68442,"ELEMENT_SET_NO":999,"REV_AT_EPOCH":450,"BSTAR":0.00027725719,"MEAN_MOTION_DOT":5.45e-5,"MEAN_MOTION_DDOT":0},{"OBJECT_NAME":"TRANSPORTER-16 OBJECT AD","OBJECT_ID":"2026-067AD","EPOCH":"2026-04-29T04:23:50.735904","MEAN_MOTION":15.17162217,"ECCENTRICITY":0.00030745,"INCLINATION":97.4514,"RA_OF_ASC_NODE":78.34,"ARG_OF_PERICENTER":225.027,"MEAN_ANOMALY":135.0715,"EPHEMERIS_TYPE":0,"CLASSIFICATION_TYPE":"U","NORAD_CAT_ID":68443,"ELEMENT_SET_NO":999,"REV_AT_EPOCH":450,"BSTAR":0.00024168574,"MEAN_MOTION_DOT":4.731e-5,"MEAN_MOTION_DDOT":0},{"OBJECT_NAME":"TRANSPORTER-16 OBJECT AE","OBJECT_ID":"2026-067AE","EPOCH":"2026-04-29T05:27:45.763200","MEAN_MOTION":15.18295409,"ECCENTRICITY":0.00030116,"INCLINATION":97.454,"RA_OF_ASC_NODE":78.442,"ARG_OF_PERICENTER":121.0232,"MEAN_ANOMALY":239.1299,"EPHEMERIS_TYPE":0,"CLASSIFICATION_TYPE":"U","NORAD_CAT_ID":68444,"ELEMENT_SET_NO":999,"REV_AT_EPOCH":451,"BSTAR":0.00032827768,"MEAN_MOTION_DOT":6.666e-5,"MEAN_MOTION_DDOT":0},{"OBJECT_NAME":"TRANSPORTER-16 OBJECT AF","OBJECT_ID":"2026-067AF","EPOCH":"2026-04-29T04:28:07.840704","MEAN_MOTION":15.16990591,"ECCENTRICITY":0.0003357,"INCLINATION":97.4486,"RA_OF_ASC_NODE":78.3245,"ARG_OF_PERICENTER":236.0233,"MEAN_ANOMALY":124.0682,"EPHEMERIS_TYPE":0,"CLASSIFICATION_TYPE":"U","NORAD_CAT_ID":68445,"ELEMENT_SET_NO":999,"REV_AT_EPOCH":450,"BSTAR":0.00021148028,"MEAN_MOTION_DOT":4.111e-5,"MEAN_MOTION_DDOT":0},{"OBJECT_NAME":"HADES-SA (SPINNYONE)","OBJECT_ID":"2026-067AG","EPOCH":"2026-04-29T02:51:51.280992","MEAN_MOTION":15.17406644,"ECCENTRICITY":0.00050007,"INCLINATION":97.4375,"RA_OF_ASC_NODE":78.2241,"ARG_OF_PERICENTER":233.0009,"MEAN_ANOMALY":127.0767,"EPHEMERIS_TYPE":0,"CLASSIFICATION_TYPE":"U","NORAD_CAT_ID":68446,"ELEMENT_SET_NO":999,"REV_AT_EPOCH":448,"BSTAR":0.00091313264,"MEAN_MOTION_DOT":0.00018223,"MEAN_MOTION_DDOT":0},{"OBJECT_NAME":"TRANSPORTER-16 OBJECT AH","OBJECT_ID":"2026-067AH","EPOCH":"2026-04-29T05:30:25.850304","MEAN_MOTION":15.18244059,"ECCENTRICITY":0.0002399,"INCLINATION":97.449,"RA_OF_ASC_NODE":78.4211,"ARG_OF_PERICENTER":122.1152,"MEAN_ANOMALY":238.0315,"EPHEMERIS_TYPE":0,"CLASSIFICATION_TYPE":"U","NORAD_CAT_ID":68447,"ELEMENT_SET_NO":999,"REV_AT_EPOCH":451,"BSTAR":0.00038951221,"MEAN_MOTION_DOT":7.911e-5,"MEAN_MOTION_DDOT":0},{"OBJECT_NAME":"HAWK-14A","OBJECT_ID":"2026-067AJ","EPOCH":"2026-04-29T04:09:15.744960","MEAN_MOTION":15.17877947,"ECCENTRICITY":0.00017565,"INCLINATION":97.4576,"RA_OF_ASC_NODE":78.3919,"ARG_OF_PERICENTER":222.0776,"MEAN_ANOMALY":138.0323,"EPHEMERIS_TYPE":0,"CLASSIFICATION_TYPE":"U","NORAD_CAT_ID":68448,"ELEMENT_SET_NO":999,"REV_AT_EPOCH":450,"BSTAR":0.00024376577,"MEAN_MOTION_DOT":4.872e-5,"MEAN_MOTION_DDOT":0},{"OBJECT_NAME":"TRANSPORTER-16 OBJECT AK","OBJECT_ID":"2026-067AK","EPOCH":"2026-04-29T04:18:49.753728","MEAN_MOTION":15.17405619,"ECCENTRICITY":0.00022826,"INCLINATION":97.4479,"RA_OF_ASC_NODE":78.3315,"ARG_OF_PERICENTER":221.6972,"MEAN_ANOMALY":138.4088,"EPHEMERIS_TYPE":0,"CLASSIFICATION_TYPE":"U","NORAD_CAT_ID":68449,"ELEMENT_SET_NO":999,"REV_AT_EPOCH":450,"BSTAR":0.00036616084,"MEAN_MOTION_DOT":7.255e-5,"MEAN_MOTION_DDOT":0},{"OBJECT_NAME":"TRANSPORTER-16 OBJECT AL","OBJECT_ID":"2026-067AL","EPOCH":"2026-04-29T05:33:26.974944","MEAN_MOTION":15.18134112,"ECCENTRICITY":0.0002521,"INCLINATION":97.4517,"RA_OF_ASC_NODE":78.4291,"ARG_OF_PERICENTER":138.0344,"MEAN_ANOMALY":222.1084,"EPHEMERIS_TYPE":0,"CLASSIFICATION_TYPE":"U","NORAD_CAT_ID":68450,"ELEMENT_SET_NO":999,"REV_AT_EPOCH":451,"BSTAR":0.00038849678,"MEAN_MOTION_DOT":7.865e-5,"MEAN_MOTION_DDOT":0},{"OBJECT_NAME":"TRANSPORTER-16 OBJECT AM","OBJECT_ID":"2026-067AM","EPOCH":"2026-04-29T05:31:44.018976","MEAN_MOTION":15.18197853,"ECCENTRICITY":0.00022096,"INCLINATION":97.4475,"RA_OF_ASC_NODE":78.4138,"ARG_OF_PERICENTER":124.5516,"MEAN_ANOMALY":235.5927,"EPHEMERIS_TYPE":0,"CLASSIFICATION_TYPE":"U","NORAD_CAT_ID":68451,"ELEMENT_SET_NO":999,"REV_AT_EPOCH":451,"BSTAR":0.00039063372,"MEAN_MOTION_DOT":7.924e-5,"MEAN_MOTION_DDOT":0},{"OBJECT_NAME":"TRANSPORTER-16 OBJECT AN","OBJECT_ID":"2026-067AN","EPOCH":"2026-04-29T04:17:17.866464","MEAN_MOTION":15.1746654,"ECCENTRICITY":0.00025026,"INCLINATION":97.4516,"RA_OF_ASC_NODE":78.3475,"ARG_OF_PERICENTER":210.2455,"MEAN_ANOMALY":149.8634,"EPHEMERIS_TYPE":0,"CLASSIFICATION_TYPE":"U","NORAD_CAT_ID":68452,"ELEMENT_SET_NO":999,"REV_AT_EPOCH":450,"BSTAR":0.00038139472,"MEAN_MOTION_DOT":7.573e-5,"MEAN_MOTION_DDOT":0},{"OBJECT_NAME":"TRANSPORTER-16 OBJECT AP","OBJECT_ID":"2026-067AP","EPOCH":"2026-04-29T05:34:01.065792","MEAN_MOTION":15.18112909,"ECCENTRICITY":0.00026062,"INCLINATION":97.452,"RA_OF_ASC_NODE":78.4299,"ARG_OF_PERICENTER":143.9575,"MEAN_ANOMALY":216.1836,"EPHEMERIS_TYPE":0,"CLASSIFICATION_TYPE":"U","NORAD_CAT_ID":68453,"ELEMENT_SET_NO":999,"REV_AT_EPOCH":451,"BSTAR":0.00038144505,"MEAN_MOTION_DOT":7.717e-5,"MEAN_MOTION_DDOT":0},{"OBJECT_NAME":"TRANSPORTER-16 OBJECT AQ","OBJECT_ID":"2026-067AQ","EPOCH":"2026-04-29T04:25:27.888384","MEAN_MOTION":15.17159915,"ECCENTRICITY":0.00039496,"INCLINATION":97.454,"RA_OF_ASC_NODE":78.3496,"ARG_OF_PERICENTER":217.7008,"MEAN_ANOMALY":142.3949,"EPHEMERIS_TYPE":0,"CLASSIFICATION_TYPE":"U","NORAD_CAT_ID":68454,"ELEMENT_SET_NO":999,"REV_AT_EPOCH":450,"BSTAR":0.00032771691,"MEAN_MOTION_DOT":6.441e-5,"MEAN_MOTION_DDOT":0},{"OBJECT_NAME":"TRANSPORTER-16 OBJECT AR","OBJECT_ID":"2026-067AR","EPOCH":"2026-04-29T02:54:52.133472","MEAN_MOTION":15.16944866,"ECCENTRICITY":0.00043091,"INCLINATION":97.4542,"RA_OF_ASC_NODE":78.28,"ARG_OF_PERICENTER":219.0298,"MEAN_ANOMALY":141.0624,"EPHEMERIS_TYPE":0,"CLASSIFICATION_TYPE":"U","NORAD_CAT_ID":68455,"ELEMENT_SET_NO":999,"REV_AT_EPOCH":449,"BSTAR":0.00025368099,"MEAN_MOTION_DOT":4.939e-5,"MEAN_MOTION_DDOT":0},{"OBJECT_NAME":"PARUS-6U1","OBJECT_ID":"2026-067AS","EPOCH":"2026-04-29T04:29:15.120384","MEAN_MOTION":15.16993175,"ECCENTRICITY":0.00042643,"INCLINATION":97.4517,"RA_OF_ASC_NODE":78.3358,"ARG_OF_PERICENTER":218.7081,"MEAN_ANOMALY":141.3847,"EPHEMERIS_TYPE":0,"CLASSIFICATION_TYPE":"U","NORAD_CAT_ID":68456,"ELEMENT_SET_NO":999,"REV_AT_EPOCH":450,"BSTAR":0.00027911579,"MEAN_MOTION_DOT":5.449e-5,"MEAN_MOTION_DDOT":0},{"OBJECT_NAME":"TRANSPORTER-16 OBJECT AT","OBJECT_ID":"2026-067AT","EPOCH":"2026-04-28T19:54:35.450208","MEAN_MOTION":15.18534004,"ECCENTRICITY":0.00032076,"INCLINATION":97.4512,"RA_OF_ASC_NODE":78.0463,"ARG_OF_PERICENTER":121.0254,"MEAN_ANOMALY":239.1296,"EPHEMERIS_TYPE":0,"CLASSIFICATION_TYPE":"U","NORAD_CAT_ID":68457,"ELEMENT_SET_NO":999,"REV_AT_EPOCH":445,"BSTAR":0.00052561417,"MEAN_MOTION_DOT":0.00010793,"MEAN_MOTION_DDOT":0},{"OBJECT_NAME":"SAL-E","OBJECT_ID":"2026-067AU","EPOCH":"2026-04-29T02:54:24.548544","MEAN_MOTION":15.17046533,"ECCENTRICITY":0.00041763,"INCLINATION":97.4443,"RA_OF_ASC_NODE":78.244,"ARG_OF_PERICENTER":231.3342,"MEAN_ANOMALY":128.7518,"EPHEMERIS_TYPE":0,"CLASSIFICATION_TYPE":"U","NORAD_CAT_ID":68458,"ELEMENT_SET_NO":999,"REV_AT_EPOCH":449,"BSTAR":0.00041394934,"MEAN_MOTION_DOT":8.128e-5,"MEAN_MOTION_DDOT":0}]
